[{"OBJECT_NAME":"ATLAS CENTAUR 2","OBJECT_ID":"1963-047A","EPOCH":"2026-04-09T19:00:42.058080","MEAN_MOTION":14.12220623,"ECCENTRICITY":0.0546799,"INCLINATION":30.3562,"RA_OF_ASC_NODE":21.8086,"ARG_OF_PERICENTER":354.4162,"MEAN_ANOMALY":5.0526,"EPHEMERIS_TYPE":0,"CLASSIFICATION_TYPE":"U","NORAD_CAT_ID":694,"ELEMENT_SET_NO":999,"REV_AT_EPOCH":13602,"BSTAR":0.00034543,"MEAN_MOTION_DOT":2.909e-5,"MEAN_MOTION_DDOT":0},{"OBJECT_NAME":"THOR AGENA D R/B","OBJECT_ID":"1964-002A","EPOCH":"2026-04-09T12:02:04.409952","MEAN_MOTION":14.34037353,"ECCENTRICITY":0.0033176,"INCLINATION":99.1205,"RA_OF_ASC_NODE":114.517,"ARG_OF_PERICENTER":167.1055,"MEAN_ANOMALY":193.0983,"EPHEMERIS_TYPE":0,"CLASSIFICATION_TYPE":"U","NORAD_CAT_ID":733,"ELEMENT_SET_NO":999,"REV_AT_EPOCH":24271,"BSTAR":8.8337e-5,"MEAN_MOTION_DOT":2.0e-6,"MEAN_MOTION_DDOT":0},{"OBJECT_NAME":"SL-3 R/B","OBJECT_ID":"1964-053B","EPOCH":"2026-04-09T18:15:30.034656","MEAN_MOTION":14.61391958,"ECCENTRICITY":0.0080767,"INCLINATION":65.0765,"RA_OF_ASC_NODE":240.1381,"ARG_OF_PERICENTER":282.4669,"MEAN_ANOMALY":76.7403,"EPHEMERIS_TYPE":0,"CLASSIFICATION_TYPE":"U","NORAD_CAT_ID":877,"ELEMENT_SET_NO":999,"REV_AT_EPOCH":27133,"BSTAR":7.4128e-5,"MEAN_MOTION_DOT":2.58e-6,"MEAN_MOTION_DDOT":0},{"OBJECT_NAME":"SL-8 R/B","OBJECT_ID":"1967-045B","EPOCH":"2026-04-09T18:50:15.639072","MEAN_MOTION":14.45647222,"ECCENTRICITY":0.0065136,"INCLINATION":74.0098,"RA_OF_ASC_NODE":290.015,"ARG_OF_PERICENTER":289.5474,"MEAN_ANOMALY":69.8658,"EPHEMERIS_TYPE":0,"CLASSIFICATION_TYPE":"U","NORAD_CAT_ID":2802,"ELEMENT_SET_NO":999,"REV_AT_EPOCH":9351,"BSTAR":8.7218e-5,"MEAN_MOTION_DOT":2.87e-6,"MEAN_MOTION_DDOT":0},{"OBJECT_NAME":"SL-8 R/B","OBJECT_ID":"1968-040B","EPOCH":"2026-04-09T20:28:30.958176","MEAN_MOTION":15.03490887,"ECCENTRICITY":0.0023361,"INCLINATION":74.0301,"RA_OF_ASC_NODE":250.0007,"ARG_OF_PERICENTER":60.7808,"MEAN_ANOMALY":299.5713,"EPHEMERIS_TYPE":0,"CLASSIFICATION_TYPE":"U","NORAD_CAT_ID":3230,"ELEMENT_SET_NO":999,"REV_AT_EPOCH":9469,"BSTAR":0.00021251,"MEAN_MOTION_DOT":2.872e-5,"MEAN_MOTION_DDOT":0},{"OBJECT_NAME":"OAO 2","OBJECT_ID":"1968-110A","EPOCH":"2026-04-09T08:15:55.633824","MEAN_MOTION":14.47325814,"ECCENTRICITY":0.00049734,"INCLINATION":34.9925,"RA_OF_ASC_NODE":94.0637,"ARG_OF_PERICENTER":83.4251,"MEAN_ANOMALY":276.7005,"EPHEMERIS_TYPE":0,"CLASSIFICATION_TYPE":"U","NORAD_CAT_ID":3597,"ELEMENT_SET_NO":999,"REV_AT_EPOCH":2354,"BSTAR":6.1027813e-5,"MEAN_MOTION_DOT":2.07e-6,"MEAN_MOTION_DDOT":0},{"OBJECT_NAME":"ISIS 1","OBJECT_ID":"1969-009A","EPOCH":"2026-04-09T10:17:39.202080","MEAN_MOTION":11.30422284,"ECCENTRICITY":0.1707616,"INCLINATION":88.4482,"RA_OF_ASC_NODE":151.9509,"ARG_OF_PERICENTER":27.1481,"MEAN_ANOMALY":340.9281,"EPHEMERIS_TYPE":0,"CLASSIFICATION_TYPE":"U","NORAD_CAT_ID":3669,"ELEMENT_SET_NO":999,"REV_AT_EPOCH":35200,"BSTAR":6.7707e-5,"MEAN_MOTION_DOT":1.09e-6,"MEAN_MOTION_DDOT":0},{"OBJECT_NAME":"SERT 2","OBJECT_ID":"1970-009A","EPOCH":"2026-04-09T20:19:25.795776","MEAN_MOTION":13.58733637,"ECCENTRICITY":0.0005774,"INCLINATION":99.2797,"RA_OF_ASC_NODE":41.2426,"ARG_OF_PERICENTER":85.4525,"MEAN_ANOMALY":336.0179,"EPHEMERIS_TYPE":0,"CLASSIFICATION_TYPE":"U","NORAD_CAT_ID":4327,"ELEMENT_SET_NO":999,"REV_AT_EPOCH":78412,"BSTAR":0.0001131,"MEAN_MOTION_DOT":4.1e-7,"MEAN_MOTION_DDOT":0},{"OBJECT_NAME":"SL-3 R/B","OBJECT_ID":"1971-028B","EPOCH":"2026-04-09T20:14:16.754208","MEAN_MOTION":15.64084047,"ECCENTRICITY":0.0015994,"INCLINATION":81.2377,"RA_OF_ASC_NODE":13.4753,"ARG_OF_PERICENTER":162.963,"MEAN_ANOMALY":197.2165,"EPHEMERIS_TYPE":0,"CLASSIFICATION_TYPE":"U","NORAD_CAT_ID":5118,"ELEMENT_SET_NO":999,"REV_AT_EPOCH":99353,"BSTAR":0.0004012,"MEAN_MOTION_DOT":0.00038328,"MEAN_MOTION_DDOT":0},{"OBJECT_NAME":"ASTEX 1","OBJECT_ID":"1971-089A","EPOCH":"2026-04-09T10:42:29.146752","MEAN_MOTION":14.50802877,"ECCENTRICITY":0.00148497,"INCLINATION":92.7073,"RA_OF_ASC_NODE":161.6973,"ARG_OF_PERICENTER":349.3138,"MEAN_ANOMALY":10.775,"EPHEMERIS_TYPE":0,"CLASSIFICATION_TYPE":"U","NORAD_CAT_ID":5560,"ELEMENT_SET_NO":999,"REV_AT_EPOCH":86676,"BSTAR":9.8557007e-5,"MEAN_MOTION_DOT":3.87e-6,"MEAN_MOTION_DDOT":0},{"OBJECT_NAME":"SL-8 R/B","OBJECT_ID":"1971-119B","EPOCH":"2026-04-09T13:01:46.801920","MEAN_MOTION":14.38428859,"ECCENTRICITY":0.0545714,"INCLINATION":73.8842,"RA_OF_ASC_NODE":118.0224,"ARG_OF_PERICENTER":78.1158,"MEAN_ANOMALY":288.0629,"EPHEMERIS_TYPE":0,"CLASSIFICATION_TYPE":"U","NORAD_CAT_ID":5730,"ELEMENT_SET_NO":999,"REV_AT_EPOCH":65992,"BSTAR":0.00034584,"MEAN_MOTION_DOT":6.608e-5,"MEAN_MOTION_DDOT":0},{"OBJECT_NAME":"OAO 3 (COPERNICUS)","OBJECT_ID":"1972-065A","EPOCH":"2026-04-09T08:45:06.795936","MEAN_MOTION":14.60023417,"ECCENTRICITY":0.00061686,"INCLINATION":35.0044,"RA_OF_ASC_NODE":122.5415,"ARG_OF_PERICENTER":48.4145,"MEAN_ANOMALY":328.575,"EPHEMERIS_TYPE":0,"CLASSIFICATION_TYPE":"U","NORAD_CAT_ID":6153,"ELEMENT_SET_NO":999,"REV_AT_EPOCH":85068,"BSTAR":6.5642359e-5,"MEAN_MOTION_DOT":2.99e-6,"MEAN_MOTION_DDOT":0},{"OBJECT_NAME":"ATLAS CENTAUR R/B","OBJECT_ID":"1972-065B","EPOCH":"2026-04-09T08:49:21.798624","MEAN_MOTION":14.77779204,"ECCENTRICITY":0.00341607,"INCLINATION":35.0005,"RA_OF_ASC_NODE":125.9542,"ARG_OF_PERICENTER":268.453,"MEAN_ANOMALY":91.2257,"EPHEMERIS_TYPE":0,"CLASSIFICATION_TYPE":"U","NORAD_CAT_ID":6155,"ELEMENT_SET_NO":999,"REV_AT_EPOCH":84580,"BSTAR":0.0001611877,"MEAN_MOTION_DOT":1.164e-5,"MEAN_MOTION_DDOT":0},{"OBJECT_NAME":"SL-8 R/B","OBJECT_ID":"1975-112B","EPOCH":"2026-04-09T20:58:42.513024","MEAN_MOTION":14.38222356,"ECCENTRICITY":0.0014861,"INCLINATION":74.0611,"RA_OF_ASC_NODE":321.5502,"ARG_OF_PERICENTER":42.4029,"MEAN_ANOMALY":317.827,"EPHEMERIS_TYPE":0,"CLASSIFICATION_TYPE":"U","NORAD_CAT_ID":8459,"ELEMENT_SET_NO":999,"REV_AT_EPOCH":63635,"BSTAR":7.5478e-5,"MEAN_MOTION_DOT":2.03e-6,"MEAN_MOTION_DDOT":0},{"OBJECT_NAME":"SL-3 R/B","OBJECT_ID":"1977-057B","EPOCH":"2026-04-09T18:54:52.731648","MEAN_MOTION":15.46423613,"ECCENTRICITY":0.0007561,"INCLINATION":97.5813,"RA_OF_ASC_NODE":273.1064,"ARG_OF_PERICENTER":162.2741,"MEAN_ANOMALY":197.8773,"EPHEMERIS_TYPE":0,"CLASSIFICATION_TYPE":"U","NORAD_CAT_ID":10114,"ELEMENT_SET_NO":999,"REV_AT_EPOCH":67313,"BSTAR":0.00022609,"MEAN_MOTION_DOT":0.00011108,"MEAN_MOTION_DDOT":0},{"OBJECT_NAME":"SEASAT 1","OBJECT_ID":"1978-064A","EPOCH":"2026-04-09T18:16:48.367488","MEAN_MOTION":14.46189002,"ECCENTRICITY":0.0002776,"INCLINATION":108.0068,"RA_OF_ASC_NODE":190.6933,"ARG_OF_PERICENTER":269.9037,"MEAN_ANOMALY":90.179,"EPHEMERIS_TYPE":0,"CLASSIFICATION_TYPE":"U","NORAD_CAT_ID":10967,"ELEMENT_SET_NO":999,"REV_AT_EPOCH":51100,"BSTAR":0.000124,"MEAN_MOTION_DOT":3.06e-6,"MEAN_MOTION_DDOT":0},{"OBJECT_NAME":"SL-14 R/B","OBJECT_ID":"1979-011B","EPOCH":"2026-04-09T15:12:05.925888","MEAN_MOTION":14.91953217,"ECCENTRICITY":0.0014904,"INCLINATION":82.5226,"RA_OF_ASC_NODE":67.1997,"ARG_OF_PERICENTER":318.7771,"MEAN_ANOMALY":41.2322,"EPHEMERIS_TYPE":0,"CLASSIFICATION_TYPE":"U","NORAD_CAT_ID":11267,"ELEMENT_SET_NO":999,"REV_AT_EPOCH":53339,"BSTAR":6.9286e-5,"MEAN_MOTION_DOT":7.28e-6,"MEAN_MOTION_DDOT":0}]
