ATLAS CENTAUR 2         
1 00694U 63047A   26099.79215345  .00002909  00000+0  34543-3 0  9992
2 00694  30.3562  21.8086 0546799 354.4162   5.0526 14.12220623136023
THOR AGENA D R/B        
1 00733U 64002A   26099.50143993  .00000200  00000+0  88337-4 0  9999
2 00733  99.1205 114.5170 0033176 167.1055 193.0983 14.34037353242717
SL-3 R/B                
1 00877U 64053B   26099.76076429  .00000258  00000+0  74128-4 0  9997
2 00877  65.0765 240.1381 0080767 282.4669  76.7403 14.61391958271337
SL-8 R/B                
1 02802U 67045B   26099.78490323  .00000287  00000+0  87218-4 0  9992
2 02802  74.0098 290.0150 0065136 289.5474  69.8658 14.45647222 93516
SL-8 R/B                
1 03230U 68040B   26099.85313609  .00002872  00000+0  21251-3 0  9999
2 03230  74.0301 250.0007 0023361  60.7808 299.5713 15.03490887 94692
OAO 2                   
1 03597U 68110A   26099.34439391  .00000207  00000+0  61028-4 0  9991
2 03597  34.9925  94.0637 0004973  83.4251 276.7005 14.47325814 23543
ISIS 1                  
1 03669U 69009A   26099.42892595  .00000109  00000+0  67707-4 0  9998
2 03669  88.4482 151.9509 1707616  27.1481 340.9281 11.30422284352005
SERT 2                  
1 04327U 70009A   26099.84682634  .00000041  00000+0  11310-3 0  9992
2 04327  99.2797  41.2426 0005774  85.4525 336.0179 13.58733637784129
SL-3 R/B                
1 05118U 71028B   26099.84324947  .00038328  00000+0  40120-3 0  9993
2 05118  81.2377  13.4753 0015994 162.9630 197.2165 15.64084047993532
ASTEX 1                 
1 05560U 71089A   26099.44617068  .00000387  00000+0  98557-4 0  9998
2 05560  92.7073 161.6973 0014849 349.3138  10.7750 14.50802877866761
SL-8 R/B                
1 05730U 71119B   26099.54290280  .00006608  00000+0  34584-3 0  9996
2 05730  73.8842 118.0224 0545714  78.1158 288.0629 14.38428859659921
OAO 3 (COPERNICUS)      
1 06153U 72065A   26099.36466199  .00000299  00000+0  65642-4 0  9991
2 06153  35.0044 122.5415 0006168  48.4145 328.5750 14.60023417850685
ATLAS CENTAUR R/B       
1 06155U 72065B   26099.36761341  .00001164  00000+0  16119-3 0  9996
2 06155  35.0005 125.9542 0034160 268.4530  91.2257 14.77779204845801
SL-8 R/B                
1 08459U 75112B   26099.87410316  .00000203  00000+0  75478-4 0  9997
2 08459  74.0611 321.5502 0014861  42.4029 317.8270 14.38222356636353
SL-3 R/B                
1 10114U 77057B   26099.78811032  .00011108  00000+0  22609-3 0  9991
2 10114  97.5813 273.1064 0007561 162.2741 197.8773 15.46423613673134
SEASAT 1                
1 10967U 78064A   26099.76167092  .00000306  00000+0  12400-3 0  9990
2 10967 108.0068 190.6933 0002776 269.9037  90.1790 14.46189002511005
SL-14 R/B               
1 11267U 79011B   26099.63340192  .00000728  00000+0  69286-4 0  9990
2 11267  82.5226  67.1997 0014904 318.7771  41.2322 14.91953217533394
